OBJECT_NAME,OBJECT_ID,EPOCH,MEAN_MOTION,ECCENTRICITY,INCLINATION,RA_OF_ASC_NODE,ARG_OF_PERICENTER,MEAN_ANOMALY,EPHEMERIS_TYPE,CLASSIFICATION_TYPE,NORAD_CAT_ID,ELEMENT_SET_NO,REV_AT_EPOCH,BSTAR,MEAN_MOTION_DOT,MEAN_MOTION_DDOT
KUIPER-00077,2025-151J,2026-06-10T11:32:50.191872,14.79976300,.0000439,51.9006,247.7869,101.9739,258.1273,0,U,64824,999,4908,.43135E-3,.3072E-4,0
KUIPER-00078,2025-151K,2026-06-09T23:27:30.563712,14.79937273,.00007108,51.9011,247.4955,126.2080,233.8948,0,U,64825,999,4904,.74713903E-4,.349E-5,0
KUIPER-00079,2025-151L,2026-06-10T11:29:05.239968,14.79927360,.0000312,51.8977,250.2467,81.6363,278.4635,0,U,64826,999,5024,-.60816E-5,-.267E-5,0
KUIPER-00080,2025-151M,2026-06-10T12:17:40.781184,14.79944860,.0001121,51.8994,250.1038,96.5028,263.6062,0,U,64827,999,4905,.46267E-3,.3309E-4,0
KUIPER-00082,2025-151N,2026-06-10T11:48:30.031200,14.79921316,.0000654,51.8994,237.7411,105.7589,254.3446,0,U,64828,999,4922,.36449E-4,.57E-6,0
KUIPER-00083,2025-151P,2026-06-10T11:36:51.521760,14.79923696,.0000692,51.9001,245.2628,102.2652,257.8388,0,U,64829,999,5030,-.11765E-3,-.1118E-4,0
KUIPER-00084,2025-151Q,2026-06-10T11:21:19.315008,14.79930062,.0000564,51.9016,255.2957,98.5681,261.5345,0,U,64830,999,4897,.21008E-3,.1381E-4,0
KUIPER-00085,2025-151R,2026-06-09T22:01:57.339264,14.79932196,.00006335,51.9015,240.3217,99.7574,260.3460,0,U,64831,999,4913,.21203526E-3,.1396E-4,0
KUIPER-00086,2025-151S,2026-06-10T12:21:31.462272,14.79977245,.0000154,51.9018,247.6405,281.1123,78.9822,0,U,64832,999,4908,.14419E-2,.108E-3,0
KUIPER-00087,2025-151T,2026-06-10T11:11:31.774272,14.79925232,.0000644,51.8983,230.3175,98.8714,261.2321,0,U,64833,999,4931,-.10244E-3,-.1002E-4,0
KUIPER-00089,2025-151U,2026-06-10T11:03:46.454112,14.79933541,.0000545,51.9002,235.3599,96.0421,264.0604,0,U,64834,999,4925,.39319E-3,.2778E-4,0
KUIPER-00090,2025-151V,2026-06-10T11:15:24.967872,14.79933867,.0000514,51.8979,227.8372,88.7405,271.3617,0,U,64835,999,4935,.36626E-3,.2572E-4,0
KUIPER-00091,2025-151W,2026-06-10T11:07:39.372960,14.79932299,.0000449,51.9013,232.8627,86.1388,273.9626,0,U,64836,999,4928,.38249E-3,.2696E-4,0
KUIPER-00092,2025-151X,2026-06-10T12:33:15.052032,14.79935894,.0000523,51.8996,240.0922,93.6078,266.4945,0,U,64837,999,5040,.38311E-3,.2701E-4,0
KUIPER-00093,2025-151Y,2026-06-10T12:29:21.604416,14.79935277,.000055,51.8997,242.5803,95.5012,264.6013,0,U,64838,999,4915,.39867E-3,.282E-4,0
KUIPER-00094,2025-151Z,2026-06-10T12:00:02.000160,14.80768549,.000042,51.9132,197.7494,83.5051,268.9575,0,U,64839,999,549,-.40427E-1,-.30095E-2,0
LEMUR-2-HUBBLE-5,2025-135BT,2026-06-10T07:50:09.460032,14.94114676,.0005611,97.7711,275.9387,17.2157,342.9252,0,U,64840,999,5288,.1678E-3,.1737E-4,0
LEMUR-2-KARENDARRELL,2025-135BU,2026-06-10T07:32:28.881024,15.00010918,.0009221,97.7668,277.5351,228.7394,131.3036,0,U,64841,999,5298,.56869E-3,.7023E-4,0
STARLINK-34723,2025-152A,2026-06-10T08:03:09.898272,15.05658122,.0002054,97.3818,15.9791,86.8416,273.3046,0,U,64842,999,4935,.65969E-4,.895E-5,0
STARLINK-34725,2025-152B,2026-06-10T12:26:20.732064,15.05661377,.0002602,97.3793,16.1968,88.7062,271.4463,0,U,64843,999,4938,.33847E-3,.4831E-4,0
STARLINK-34709,2025-152C,2026-06-10T12:30:19.871712,15.05661974,.0002453,97.3793,16.1881,83.5930,276.5576,0,U,64844,999,4938,.37564E-3,.5368E-4,0
STARLINK-34706,2025-152D,2026-06-10T12:46:16.641120,15.05658439,.0001988,97.3804,16.1744,85.4549,274.6905,0,U,64845,999,4938,.217E-3,.3075E-4,0
STARLINK-34736,2025-152E,2026-06-10T12:00:02.000160,15.05625359,.0002073,97.3761,16.2197,84.0580,297.1038,0,U,64846,999,578,.39885E-2,.57923E-3,0
STARLINK-34746,2025-152F,2026-06-10T12:02:25.482048,15.05658604,.0002471,97.3795,16.2154,85.6539,274.4970,0,U,64847,999,4938,.2935E-3,.4181E-4,0
STARLINK-34748,2025-152G,2026-06-10T11:42:29.117664,15.05668167,.0001718,97.3820,16.2354,86.4144,273.7279,0,U,64848,999,4938,.4582E-3,.6563E-4,0
STARLINK-34756,2025-152H,2026-06-10T12:06:25.850304,15.05643774,.0002305,97.3785,16.2293,77.9336,282.2150,0,U,64849,999,4938,.42818E-3,.6125E-4,0
STARLINK-34757,2025-152J,2026-06-10T12:18:22.228128,15.05662509,.0002387,97.3798,16.1989,88.1695,271.9806,0,U,64850,999,4938,.38313E-3,.5477E-4,0
STARLINK-34722,2025-152K,2026-06-10T12:34:19.114176,15.05658579,.0002626,97.3797,16.1838,77.4027,282.7494,0,U,64851,999,4938,.83401E-4,.1146E-4,0
STARLINK-34564,2025-152L,2026-06-10T12:10:23.578176,15.05668775,.0002592,97.3776,16.2085,81.3587,278.7934,0,U,64852,999,4938,.45574E-3,.6528E-4,0
STARLINK-34676,2025-152M,2026-06-10T12:38:20.167584,15.05667186,.0003246,97.3794,16.1793,82.6512,277.5085,0,U,64853,999,4938,.80421E-3,.11571E-3,0
