KUIPER-00077            
1 64824U 25151J   26161.48113648  .00003072  00000+0  43135-3 0  9999
2 64824  51.9006 247.7869 0000439 101.9739 258.1273 14.79976300 49081
KUIPER-00078            
1 64825U 25151K   26160.97743708  .00000349  00000+0  74714-4 0  9991
2 64825  51.9011 247.4955 0000710 126.2080 233.8948 14.79937273 49043
KUIPER-00079            
1 64826U 25151L   26161.47853287 -.00000267  00000+0 -60816-5 0  9992
2 64826  51.8977 250.2467 0000312  81.6363 278.4635 14.79927360 50248
KUIPER-00080            
1 64827U 25151M   26161.51227756  .00003309  00000+0  46267-3 0  9994
2 64827  51.8994 250.1038 0001121  96.5028 263.6062 14.79944860 49054
KUIPER-00082            
1 64828U 25151N   26161.49201425  .00000057  00000+0  36449-4 0  9996
2 64828  51.8994 237.7411 0000654 105.7589 254.3446 14.79921316 49229
KUIPER-00083            
1 64829U 25151P   26161.48392965 -.00001118  00000+0 -11765-3 0  9990
2 64829  51.9001 245.2628 0000692 102.2652 257.8388 14.79923696 50306
KUIPER-00084            
1 64830U 25151Q   26161.47314022  .00001381  00000+0  21008-3 0  9990
2 64830  51.9016 255.2957 0000564  98.5681 261.5345 14.79930062 48977
KUIPER-00085            
1 64831U 25151R   26160.91802476  .00001396  00000+0  21204-3 0  9998
2 64831  51.9015 240.3217 0000633  99.7574 260.3460 14.79932196 49136
KUIPER-00086            
1 64832U 25151S   26161.51494748  .00010800  00000+0  14419-2 0  9994
2 64832  51.9018 247.6405 0000154 281.1123  78.9822 14.79977245 49087
KUIPER-00087            
1 64833U 25151T   26161.46633998 -.00001002  00000+0 -10244-3 0  9990
2 64833  51.8983 230.3175 0000644  98.8714 261.2321 14.79925232 49310
KUIPER-00089            
1 64834U 25151U   26161.46095433  .00002778  00000+0  39319-3 0  9990
2 64834  51.9002 235.3599 0000545  96.0421 264.0604 14.79933541 49254
KUIPER-00090            
1 64835U 25151V   26161.46903898  .00002572  00000+0  36626-3 0  9994
2 64835  51.8979 227.8372 0000514  88.7405 271.3617 14.79933867 49355
KUIPER-00091            
1 64836U 25151W   26161.46365015  .00002696  00000+0  38249-3 0  9998
2 64836  51.9013 232.8627 0000449  86.1388 273.9626 14.79932299 49282
KUIPER-00092            
1 64837U 25151X   26161.52309088  .00002701  00000+0  38311-3 0  9991
2 64837  51.8996 240.0922 0000523  93.6078 266.4945 14.79935894 50404
KUIPER-00093            
1 64838U 25151Y   26161.52038894  .00002820  00000+0  39867-3 0  9995
2 64838  51.8997 242.5803 0000550  95.5012 264.6013 14.79935277 49151
KUIPER-00094            
1 64839U 25151Z   26161.50002315 -.00300950  00000+0 -40427-1 0  9992
2 64839  51.9132 197.7494 0000420  83.5051 268.9575 14.80768549  5494
LEMUR-2-HUBBLE-5        
1 64840U 25135BT  26161.32649838  .00001737  00000+0  16780-3 0  9999
2 64840  97.7711 275.9387 0005611  17.2157 342.9252 14.94114676 52886
LEMUR-2-KARENDARRELL    
1 64841U 25135BU  26161.31422316  .00007023  00000+0  56869-3 0  9995
2 64841  97.7668 277.5351 0009221 228.7394 131.3036 15.00010918 52983
STARLINK-34723          
1 64842U 25152A   26161.33553123  .00000895  00000+0  65969-4 0  9990
2 64842  97.3818  15.9791 0002054  86.8416 273.3046 15.05658122 49359
STARLINK-34725          
1 64843U 25152B   26161.51829551  .00004831  00000+0  33847-3 0  9995
2 64843  97.3793  16.1968 0002602  88.7062 271.4463 15.05661377 49389
STARLINK-34709          
1 64844U 25152C   26161.52106333  .00005368  00000+0  37564-3 0  9999
2 64844  97.3793  16.1881 0002453  83.5930 276.5576 15.05661974 49389
STARLINK-34706          
1 64845U 25152D   26161.53213705  .00003075  00000+0  21700-3 0  9991
2 64845  97.3804  16.1744 0001988  85.4549 274.6905 15.05658439 49387
STARLINK-34736          
1 64846U 25152E   26161.50002315  .00057923  00000+0  39885-2 0  9995
2 64846  97.3761  16.2197 0002073  84.0580 297.1038 15.05625359  5787
STARLINK-34746          
1 64847U 25152F   26161.50168382  .00004181  00000+0  29350-3 0  9998
2 64847  97.3795  16.2154 0002471  85.6539 274.4970 15.05658604 49387
STARLINK-34748          
1 64848U 25152G   26161.48783701  .00006563  00000+0  45820-3 0  9990
2 64848  97.3820  16.2354 0001718  86.4144 273.7279 15.05668167 49382
STARLINK-34756          
1 64849U 25152H   26161.50446586  .00006125  00000+0  42818-3 0  9999
2 64849  97.3785  16.2293 0002305  77.9336 282.2150 15.05643774 49386
STARLINK-34757          
1 64850U 25152J   26161.51275727  .00005477  00000+0  38313-3 0  9993
2 64850  97.3798  16.1989 0002387  88.1695 271.9806 15.05662509 49385
STARLINK-34722          
1 64851U 25152K   26161.52383234  .00001146  00000+0  83401-4 0  9996
2 64851  97.3797  16.1838 0002626  77.4027 282.7494 15.05658579 49389
STARLINK-34564          
1 64852U 25152L   26161.50721734  .00006528  00000+0  45574-3 0  9993
2 64852  97.3776  16.2085 0002592  81.3587 278.7934 15.05668775 49382
STARLINK-34676          
1 64853U 25152M   26161.52662231  .00011571  00000+0  80421-3 0  9996
2 64853  97.3794  16.1793 0003246  82.6512 277.5085 15.05667186 49386
